{
  "type": "FeatureCollection",
  "features": [
    {
      "type": "Feature",
      "properties": {
        "norad_id": 54741,
        "name": "GALAXY 35 (G-35)",
        "group": "intelsat",
        "lat": -0.0032866790460532955,
        "lon": 134.2877152997599,
        "alt_km": 35793.427281942335,
        "timestamp": "2025-12-14T09:36:22.702704+00:00",
        "meta_object_name": "GALAXY 35 (G-35)",
        "meta_object_id": "2022-170A",
        "meta_epoch": "2025-12-13T14:43:05.971584",
        "meta_mean_motion": 1.00271162,
        "meta_eccentricity": 0.00024245,
        "meta_inclination": 0.015,
        "meta_ra_of_asc_node": 289.2214,
        "meta_arg_of_pericenter": 339.2116,
        "meta_mean_anomaly": 301.7905,
        "meta_ephemeris_type": 0,
        "meta_classification_type": "U",
        "meta_norad_cat_id": 54741,
        "meta_element_set_no": 999,
        "meta_rev_at_epoch": 1103,
        "meta_bstar": 0,
        "meta_mean_motion_dot": -1.47e-06,
        "meta_mean_motion_ddot": 0,
        "tle_line1": "1 54741U 22170A   25347.61326356 -.00000147  00000+0  00000+0 0  9997",
        "tle_line2": "2 54741   0.0150 289.2214 0002424 339.2116 301.7905  1.00271162 11034"
      },
      "geometry": {
        "type": "Point",
        "coordinates": [
          134.2877152997599,
          -0.0032866790460532955
        ]
      }
    },
    {
      "type": "Feature",
      "properties": {
        "norad_id": 54742,
        "name": "GALAXY 36 (G-36)",
        "group": "intelsat",
        "lat": 0.0191587650894737,
        "lon": 138.4086723697562,
        "alt_km": 35787.47116007196,
        "timestamp": "2025-12-14T09:36:22.702716+00:00",
        "meta_object_name": "GALAXY 36 (G-36)",
        "meta_object_id": "2022-170B",
        "meta_epoch": "2025-12-13T13:01:38.188704",
        "meta_mean_motion": 1.00272152,
        "meta_eccentricity": 3.546e-05,
        "meta_inclination": 0.0383,
        "meta_ra_of_asc_node": 136.3807,
        "meta_arg_of_pericenter": 167.8926,
        "meta_mean_anomaly": 244.614,
        "meta_ephemeris_type": 0,
        "meta_classification_type": "U",
        "meta_norad_cat_id": 54742,
        "meta_element_set_no": 999,
        "meta_rev_at_epoch": 1091,
        "meta_bstar": 0,
        "meta_mean_motion_dot": -1.7e-06,
        "meta_mean_motion_ddot": 0,
        "tle_line1": "1 54742U 22170B   25347.54280311 -.00000170  00000+0  00000+0 0  9996",
        "tle_line2": "2 54742   0.0383 136.3807 0000354 167.8926 244.6140  1.00272152 10919"
      },
      "geometry": {
        "type": "Point",
        "coordinates": [
          138.4086723697562,
          0.0191587650894737
        ]
      }
    },
    {
      "type": "Feature",
      "properties": {
        "norad_id": 57493,
        "name": "GALAXY 37 (G-37)",
        "group": "intelsat",
        "lat": 0.026517460047419308,
        "lon": 100.40271757469212,
        "alt_km": 35794.5542631878,
        "timestamp": "2025-12-14T09:36:22.702727+00:00",
        "meta_object_name": "GALAXY 37 (G-37)",
        "meta_object_id": "2023-112A",
        "meta_epoch": "2025-12-13T13:50:40.797312",
        "meta_mean_motion": 1.00272098,
        "meta_eccentricity": 0.00020909,
        "meta_inclination": 0.0172,
        "meta_ra_of_asc_node": 40.9867,
        "meta_arg_of_pericenter": 226.5727,
        "meta_mean_anomaly": 255.6204,
        "meta_ephemeris_type": 0,
        "meta_classification_type": "U",
        "meta_norad_cat_id": 57493,
        "meta_element_set_no": 999,
        "meta_rev_at_epoch": 868,
        "meta_bstar": 0,
        "meta_mean_motion_dot": 6.3e-07,
        "meta_mean_motion_ddot": 0,
        "tle_line1": "1 57493U 23112A   25347.57686108  .00000063  00000+0  00000+0 0  9996",
        "tle_line2": "2 57493   0.0172  40.9867 0002090 226.5727 255.6204  1.00272098  8681"
      },
      "geometry": {
        "type": "Point",
        "coordinates": [
          100.40271757469212,
          0.026517460047419308
        ]
      }
    }
  ]
}